0 THAICOM 2
1 23314U 94065B   13281.29455177 -.00000259  00000-0  10000-3 0   961
2 23314 003.0642 067.8574 0006059 063.5362 296.7498 00.99591281 69488
0 THAICOM 2
1 23314U 94065B   13283.30260101 -.00000250  00000-0  10000-3 0   978
2 23314 003.0684 067.8399 0006044 063.6434 296.6121 00.99590509 69501
0 THAICOM 2
1 23314U 94065B   13287.31902965 -.00000218  00000-0  10000-3 0   989
2 23314 003.0766 067.8078 0006012 064.1534 296.1394 00.99589032 69548
0 THAICOM 2
1 23314U 94065B   13289.32716450 -.00000192  00000-0  10000-3 0   996
2 23314 003.0808 067.7919 0005990 064.3914 295.8824 00.99588353 69567
0 THAICOM 2
1 23314U 94065B   13291.33517450 -.00000163  00000-0  10000-3 0  1000
2 23314 003.0850 067.7754 0005977 066.7300 293.4750 00.99587747 69581
0 THAICOM 2
1 23314U 94065B   13293.34316919 -.00000131  00000-0  10000-3 0  1016
2 23314 003.0894 067.7564 0005771 066.5090 293.6186 00.99587208 69604
